{"type":"FeatureCollection","features":[{"type":"Feature","properties":{"kind":"outline"},"geometry":{"type":"MultiLineString","coordinates":[[[79.95849609375,13.325484885597929],[79.98046875,13.325484885597929]],[[79.95849609375,13.304102866767078],[79.95849609375,13.325484885597929]],[[79.95849609375,13.282718960896418],[79.95849609375,13.304102866767078]],[[79.95849609375,13.26133317079826],[79.95849609375,13.282718960896418]],[[79.95849609375,13.239945499286312],[79.95849609375,13.26133317079826]],[[79.95849609375,13.218555949175457],[79.95849609375,13.239945499286312]],[[79.95849609375,13.197164523281991],[79.95849609375,13.218555949175457]],[[79.95849609375,13.17577122442341],[79.95849609375,13.197164523281991]],[[79.95849609375,13.15437605541852],[79.95849609375,13.17577122442341]],[[79.95849609375,13.132979019087482],[79.95849609375,13.15437605541852]],[[79.95849609375,13.111580118251634],[79.95849609375,13.132979019087482]],[[79.95849609375,13.090179355733728],[79.95849609375,13.111580118251634]],[[79.95849609375,13.068776734357701],[79.95849609375,13.090179355733728]],[[79.95849609375,13.047372256948778],[79.95849609375,13.068776734357701]],[[79.95849609375,13.025965926333544],[79.95849609375,13.047372256948778]],[[79.95849609375,13.004557745339763],[79.95849609375,13.025965926333544]],[[79.95849609375,12.983147716796571],[79.95849609375,13.004557745339763]],[[79.95849609375,12.961735843534296],[79.95849609375,12.983147716796571]],[[79.95849609375,12.94032212838462],[79.95849609375,12.961735843534296]],[[79.95849609375,12.91890657418043],[79.95849609375,12.94032212838462]],[[79.95849609375,12.897489183755894],[79.95849609375,12.91890657418043]],[[79.95849609375,12.876069959946504],[79.95849609375,12.897489183755894]],[[79.95849609375,12.85464890558894],[79.95849609375,12.876069959946504]],[[79.95849609375,12.83322602352124],[79.95849609375,12.85464890558894]],[[79.95849609375,12.81180131658263],[79.95849609375,12.83322602352124]],[[79.95849609375,12.790374787613592],[79.98046875,12.790374787613592]],[[79.95849609375,12.790374787613592],[79.95849609375,12.81180131658263]],[[79.98046875,13.325484885597929],[80.00244140625,13.325484885597929]],[[79.98046875,12.790374787613592],[80.00244140625,12.790374787613592]],[[80.00244140625,13.325484885597929],[80.0244140625,13.325484885597929]],[[80.00244140625,12.790374787613592],[80.0244140625,12.790374787613592]],[[80.0244140625,13.325484885597929],[80.04638671875,13.325484885597929]],[[80.0244140625,12.790374787613592],[80.04638671875,12.790374787613592]],[[80.04638671875,13.325484885597929],[80.068359375,13.325484885597929]],[[80.04638671875,12.790374787613592],[80.068359375,12.790374787613592]],[[80.068359375,13.325484885597929],[80.09033203125,13.325484885597929]],[[80.068359375,12.790374787613592],[80.09033203125,12.790374787613592]],[[80.09033203125,13.325484885597929],[80.1123046875,13.325484885597929]],[[80.09033203125,12.790374787613592],[80.1123046875,12.790374787613592]],[[80.1123046875,13.325484885597929],[80.13427734375,13.325484885597929]],[[80.1123046875,12.790374787613592],[80.13427734375,12.790374787613592]],[[80.13427734375,13.325484885597929],[80.15625,13.325484885597929]],[[80.13427734375,12.790374787613592],[80.15625,12.790374787613592]],[[80.15625,13.325484885597929],[80.17822265625,13.325484885597929]],[[80.15625,12.790374787613592],[80.17822265625,12.790374787613592]],[[80.17822265625,13.325484885597929],[80.2001953125,13.325484885597929]],[[80.17822265625,12.790374787613592],[80.2001953125,12.790374787613592]],[[80.2001953125,13.325484885597929],[80.22216796875,13.325484885597929]],[[80.2001953125,12.790374787613592],[80.22216796875,12.790374787613592]],[[80.22216796875,13.325484885597929],[80.244140625,13.325484885597929]],[[80.22216796875,12.790374787613592],[80.244140625,12.790374787613592]],[[80.244140625,13.325484885597929],[80.26611328125,13.325484885597929]],[[80.244140625,12.790374787613592],[80.26611328125,12.790374787613592]],[[80.26611328125,13.325484885597929],[80.2880859375,13.325484885597929]],[[80.26611328125,12.790374787613592],[80.2880859375,12.790374787613592]],[[80.2880859375,13.325484885597929],[80.31005859375,13.325484885597929]],[[80.2880859375,12.790374787613592],[80.31005859375,12.790374787613592]],[[80.31005859375,13.325484885597929],[80.33203125,13.325484885597929]],[[80.31005859375,12.790374787613592],[80.33203125,12.790374787613592]],[[80.33203125,13.325484885597929],[80.35400390625,13.325484885597929]],[[80.33203125,12.790374787613592],[80.35400390625,12.790374787613592]],[[80.35400390625,13.325484885597929],[80.3759765625,13.325484885597929]],[[80.3759765625,13.304102866767078],[80.3759765625,13.325484885597929]],[[80.3759765625,13.282718960896418],[80.3759765625,13.304102866767078]],[[80.3759765625,13.26133317079826],[80.3759765625,13.282718960896418]],[[80.3759765625,13.239945499286312],[80.3759765625,13.26133317079826]],[[80.3759765625,13.218555949175457],[80.3759765625,13.239945499286312]],[[80.3759765625,13.197164523281991],[80.3759765625,13.218555949175457]],[[80.3759765625,13.17577122442341],[80.3759765625,13.197164523281991]],[[80.3759765625,13.15437605541852],[80.3759765625,13.17577122442341]],[[80.3759765625,13.132979019087482],[80.3759765625,13.15437605541852]],[[80.3759765625,13.111580118251634],[80.3759765625,13.132979019087482]],[[80.3759765625,13.090179355733728],[80.3759765625,13.111580118251634]],[[80.3759765625,13.068776734357701],[80.3759765625,13.090179355733728]],[[80.3759765625,13.047372256948778],[80.3759765625,13.068776734357701]],[[80.3759765625,13.025965926333544],[80.3759765625,13.047372256948778]],[[80.3759765625,13.004557745339763],[80.3759765625,13.025965926333544]],[[80.3759765625,12.983147716796571],[80.3759765625,13.004557745339763]],[[80.3759765625,12.961735843534296],[80.3759765625,12.983147716796571]],[[80.3759765625,12.94032212838462],[80.3759765625,12.961735843534296]],[[80.3759765625,12.91890657418043],[80.3759765625,12.94032212838462]],[[80.3759765625,12.897489183755894],[80.3759765625,12.91890657418043]],[[80.3759765625,12.876069959946504],[80.3759765625,12.897489183755894]],[[80.3759765625,12.85464890558894],[80.3759765625,12.876069959946504]],[[80.3759765625,12.83322602352124],[80.3759765625,12.85464890558894]],[[80.3759765625,12.81180131658263],[80.3759765625,12.83322602352124]],[[80.3759765625,12.790374787613592],[80.3759765625,12.81180131658263]],[[80.35400390625,12.790374787613592],[80.3759765625,12.790374787613592]]]}}]}